IRIDIUM 155             
1 43573U 18061E   20364.94077277 -.00000001  00000-0 -74487-5 0  9994
2 43573  86.3985 170.5571 0002307  81.1734 278.9723 14.34216514127385
IRIDIUM 154             
1 43574U 18061F   20365.41010586  .00000001  00000-0 -68535-5 0  9994
2 43574  86.3989 170.3998 0001983 100.7814 259.3605 14.34217220127496
IRIDIUM 163             
1 43575U 18061G   20364.76316293 -.00000002  00000-0 -78442-5 0  9996
2 43575  86.3988 170.6460 0001345  91.0629 269.0721 14.34217236127372
IRIDIUM 156             
1 43576U 18061H   20364.87734027 -.00000008  00000-0 -98590-5 0  9990
2 43576  86.3987 170.6031 0001789  82.0473 278.0926 14.34216998127376
IRIDIUM 164             
1 43577U 18061J   20365.41644428 -.00000007  00000-0 -95027-5 0  9998
2 43577  86.3988 170.3880 0001832  99.0397 261.1006 14.34217816127506
IRIDIUM 159             
1 43578U 18061K   20364.75682651  .00000004  00000-0 -56983-5 0  9999
2 43578  86.3987 170.6423 0001913  98.0998 262.0415 14.34217010127373
IRIDIUM 180             
1 43922U 19002A   20365.03540085  .00000091  00000-0  25603-4 0  9993
2 43922  86.3979 107.4038 0001995 127.7238 232.4139 14.34219251103067
IRIDIUM 176             
1 43923U 19002B   20365.03492580  .00000217  00000-0  30436-4 0  9990
2 43923  86.6113 107.4354 0002421 101.2547 258.8942 14.72254422105705
IRIDIUM 168             
1 43924U 19002C   20364.68022126  .00000097  00000-0  27598-4 0  9997
2 43924  86.3981 107.5730 0002158 105.3024 254.8410 14.34219138102950
IRIDIUM 173             
1 43925U 19002D   20364.73730898  .00000095  00000-0  27027-4 0  9991
2 43925  86.3978 107.5192 0002078 102.6120 257.5308 14.34218523102949
IRIDIUM 169             
1 43926U 19002E   20365.32324891  .00000108  00000-0  28874-4 0  9996
2 43926  86.4240 138.8653 0007010  75.9709 284.2268 14.38609756103420
IRIDIUM 172             
1 43927U 19002F   20364.66118976  .00000100  00000-0  28690-4 0  9996
2 43927  86.3978 107.5527 0002065 105.6456 254.4968 14.34219507102945
IRIDIUM 175             
1 43928U 19002G   20364.68890043  .00000227  00000-0  32075-4 0  9993
2 43928  86.6097 107.4333 0001743  83.6655 276.4760 14.72254204105642
IRIDIUM 171             
1 43929U 19002H   20364.99100683  .00000090  00000-0  24987-4 0  9993
2 43929  86.3987 107.4996 0002194 104.5447 255.5993 14.34218799102983
IRIDIUM 170             
1 43930U 19002J   20365.04112494  .00000211  00000-0  29590-4 0  9995
2 43930  86.6114 107.4396 0002074  98.0110 262.1342 14.72250460105714
IRIDIUM 167             
1 43931U 19002K   20364.70557587  .00000091  00000-0  25452-4 0  9993
2 43931  86.3978 107.5389 0002043 120.3763 239.7635 14.34215492102943
